[{"OBJECT_NAME":"STARLINK-36460","OBJECT_ID":"2026-005AE","EPOCH":"2026-03-09T12:09:58.375296","MEAN_MOTION":15.27585471,"ECCENTRICITY":7.19e-5,"INCLINATION":42.9953,"RA_OF_ASC_NODE":239.4247,"ARG_OF_PERICENTER":264.3929,"MEAN_ANOMALY":95.6841,"EPHEMERIS_TYPE":0,"CLASSIFICATION_TYPE":"U","NORAD_CAT_ID":67432,"ELEMENT_SET_NO":999,"REV_AT_EPOCH":865,"BSTAR":0.001372904,"MEAN_MOTION_DOT":0.00037717,"MEAN_MOTION_DDOT":0},{"OBJECT_NAME":"FENGYUN 1C DEB","OBJECT_ID":"1999-025EJQ","EPOCH":"2026-03-08T21:27:56.444256","MEAN_MOTION":15.23229897,"ECCENTRICITY":0.00101559,"INCLINATION":98.6645,"RA_OF_ASC_NODE":227.592,"ARG_OF_PERICENTER":263.6857,"MEAN_ANOMALY":96.3219,"EPHEMERIS_TYPE":0,"CLASSIFICATION_TYPE":"U","NORAD_CAT_ID":37470,"ELEMENT_SET_NO":999,"REV_AT_EPOCH":66762,"BSTAR":0.011057202,"MEAN_MOTION_DOT":0.00271626,"MEAN_MOTION_DDOT":0}]
